0 CZ-4B DEB
1 35404U 02024J   13283.09334624  .00000026  00000-0  32573-4 0  3303
2 35404 098.6617 248.0352 0052366 150.4653 209.9501 14.19130565584632
0 CZ-4B DEB
1 35404U 02024J   13287.74672449  .00000031  00000-0  34665-4 0  3321
2 35404 098.6622 252.5850 0052514 136.9981 223.5320 14.19131407585299
0 CZ-4B DEB
1 35404U 02024J   13290.14391643  .00000034  00000-0  36354-4 0  3334
2 35404 098.6625 254.9290 0052391 130.1489 230.4321 14.19131926585630
0 CZ-4B DEB
1 35404U 02024J   13292.75262211  .00000038  00000-0  37895-4 0  3347
2 35404 098.6626 257.4790 0052562 122.5951 238.0321 14.19132488586003
0 CZ-4B DEB
1 35404U 02024J   13295.14980917  .00000044  00000-0  40829-4 0  3352
2 35404 098.6629 259.8231 0052675 115.5835 245.0816 14.19133107586343
